{"type": "FeatureCollection", "features": [ {"type": "Feature", "properties": {"norad_id": 66559, "name": "STARLINK-35419", "group": "last-30-days", "lat": 38.21923767842626, "lon": -108.9668788926477, "alt_km": 410.04697856746316, "timestamp": "2025-12-11T10:53:14.620234+00:00", "meta": {"OBJECT_NAME": "STARLINK-35419", "OBJECT_ID": "2025-268C", "EPOCH": "2025-12-11T04:00:01.998720", "MEAN_MOTION": 15.50615689, "ECCENTRICITY": 0.0001718, "INCLINATION": 43.0004, "RA_OF_ASC_NODE": 130.3889, "ARG_OF_PERICENTER": 263.8749, "MEAN_ANOMALY": 47.2275, "EPHEMERIS_TYPE": 0, "CLASSIFICATION_TYPE": "U", "NORAD_CAT_ID": 66559, "ELEMENT_SET_NO": 999, "REV_AT_EPOCH": 441, "BSTAR": -0.0018912, "MEAN_MOTION_DOT": -0.00109893, "MEAN_MOTION_DDOT": 0}, "tle": {"line1": "1 66559U 25268C   25345.16668980 -.00109893  00000+0 -18912-2 0  9991", "line2": "2 66559  43.0004 130.3889 0001718 263.8749  47.2275 15.50615689  4414"}}, "geometry": {"type": "Point", "coordinates": [-108.9668788926477, 38.21923767842626]}}, {"type": "Feature", "properties": {"norad_id": 66560, "name": "STARLINK-35411", "group": "last-30-days", "lat": 37.49927263259029, "lon": -106.72296029462319, "alt_km": 410.1447054982509, "timestamp": "2025-12-11T10:53:14.620245+00:00", "meta": {"OBJECT_NAME": "STARLINK-35411", "OBJECT_ID": "2025-268D", "EPOCH": "2025-12-11T04:00:01.998720", "MEAN_MOTION": 15.50602156, "ECCENTRICITY": 0.000163, "INCLINATION": 43.0003, "RA_OF_ASC_NODE": 130.3841, "ARG_OF_PERICENTER": 270.0764, "MEAN_ANOMALY": 42.9445, "EPHEMERIS_TYPE": 0, "CLASSIFICATION_TYPE": "U", "NORAD_CAT_ID": 66560, "ELEMENT_SET_NO": 999, "REV_AT_EPOCH": 441, "BSTAR": -0.0014853, "MEAN_MOTION_DOT": -0.00086593, "MEAN_MOTION_DDOT": 0}, "tle": {"line1": "1 66560U 25268D   25345.16668980 -.00086593  00000+0 -14853-2 0  9994", "line2": "2 66560  43.0003 130.3841 0001630 270.0764  42.9445 15.50602156  4419"}}, "geometry": {"type": "Point", "coordinates": [-106.72296029462319, 37.49927263259029]}}, {"type": "Feature", "properties": {"norad_id": 66561, "name": "STARLINK-35305", "group": "last-30-days", "lat": 35.933569660340986, "lon": -102.36156832209029, "alt_km": 410.32332351088553, "timestamp": "2025-12-11T10:53:14.620255+00:00", "meta": {"OBJECT_NAME": "STARLINK-35305", "OBJECT_ID": "2025-268E", "EPOCH": "2025-12-11T04:00:01.998720", "MEAN_MOTION": 15.50604564, "ECCENTRICITY": 0.0001632, "INCLINATION": 43.0004, "RA_OF_ASC_NODE": 130.374, "ARG_OF_PERICENTER": 266.151, "MEAN_ANOMALY": 50.7038, "EPHEMERIS_TYPE": 0, "CLASSIFICATION_TYPE": "U", "NORAD_CAT_ID": 66561, "ELEMENT_SET_NO": 999, "REV_AT_EPOCH": 436, "BSTAR": -0.001567, "MEAN_MOTION_DOT": -0.00091288, "MEAN_MOTION_DDOT": 0}, "tle": {"line1": "1 66561U 25268E   25345.16668980 -.00091288  00000+0 -15670-2 0  9990", "line2": "2 66561  43.0004 130.3740 0001632 266.1510  50.7038 15.50604564  4360"}}, "geometry": {"type": "Point", "coordinates": [-102.36156832209029, 35.933569660340986]}}, {"type": "Feature", "properties": {"norad_id": 66562, "name": "STARLINK-35579", "group": "last-30-days", "lat": 36.73664487677961, "lon": -104.52104962171698, "alt_km": 410.20579086457474, "timestamp": "2025-12-11T10:53:14.620265+00:00", "meta": {"OBJECT_NAME": "STARLINK-35579", "OBJECT_ID": "2025-268F", "EPOCH": "2025-12-11T04:00:01.998720", "MEAN_MOTION": 15.50598181, "ECCENTRICITY": 0.000156, "INCLINATION": 43.0004, "RA_OF_ASC_NODE": 130.3785, "ARG_OF_PERICENTER": 269.9075, "MEAN_ANOMALY": 45.0317, "EPHEMERIS_TYPE": 0, "CLASSIFICATION_TYPE": "U", "NORAD_CAT_ID": 66562, "ELEMENT_SET_NO": 999, "REV_AT_EPOCH": 441, "BSTAR": -0.0013738, "MEAN_MOTION_DOT": -0.0008017, "MEAN_MOTION_DDOT": 0}, "tle": {"line1": "1 66562U 25268F   25345.16668980 -.00080170  00000+0 -13738-2 0  9992", "line2": "2 66562  43.0004 130.3785 0001560 269.9075  45.0317 15.50598181  4417"}}, "geometry": {"type": "Point", "coordinates": [-104.52104962171698, 36.73664487677961]}}, {"type": "Feature", "properties": {"norad_id": 66563, "name": "STARLINK-35437", "group": "last-30-days", "lat": 35.09485207058527, "lon": -100.252658363803, "alt_km": 410.3960547119941, "timestamp": "2025-12-11T10:53:14.620275+00:00", "meta": {"OBJECT_NAME": "STARLINK-35437", "OBJECT_ID": "2025-268G", "EPOCH": "2025-12-11T04:00:01.998720", "MEAN_MOTION": 15.5059488, "ECCENTRICITY": 0.0001586, "INCLINATION": 43.0004, "RA_OF_ASC_NODE": 130.3693, "ARG_OF_PERICENTER": 264.7289, "MEAN_ANOMALY": 54.0433, "EPHEMERIS_TYPE": 0, "CLASSIFICATION_TYPE": "U", "NORAD_CAT_ID": 66563, "ELEMENT_SET_NO": 999, "REV_AT_EPOCH": 441, "BSTAR": -0.0012925, "MEAN_MOTION_DOT": -0.00075486, "MEAN_MOTION_DDOT": 0}, "tle": {"line1": "1 66563U 25268G   25345.16668980 -.00075486  00000+0 -12925-2 0  9994", "line2": "2 66563  43.0004 130.3693 0001586 264.7289  54.0433 15.50594880  4415"}}, "geometry": {"type": "Point", "coordinates": [-100.252658363803, 35.09485207058527]}}, {"type": "Feature", "properties": {"norad_id": 66564, "name": "STARLINK-35358", "group": "last-30-days", "lat": 34.2152766461802, "lon": -98.1760922948412, "alt_km": 410.54173433430606, "timestamp": "2025-12-11T10:53:14.620287+00:00", "meta": {"OBJECT_NAME": "STARLINK-35358", "OBJECT_ID": "2025-268H", "EPOCH": "2025-12-11T04:00:01.998720", "MEAN_MOTION": 15.5061436, "ECCENTRICITY": 0.0001661, "INCLINATION": 43.0004, "RA_OF_ASC_NODE": 130.3649, "ARG_OF_PERICENTER": 263.5497, "MEAN_ANOMALY": 57.1358, "EPHEMERIS_TYPE": 0, "CLASSIFICATION_TYPE": "U", "NORAD_CAT_ID": 66564, "ELEMENT_SET_NO": 999, "REV_AT_EPOCH": 436, "BSTAR": -0.0018665, "MEAN_MOTION_DOT": -0.00108476, "MEAN_MOTION_DDOT": 0}, "tle": {"line1": "1 66564U 25268H   25345.16668980 -.00108476  00000+0 -18665-2 0  9998", "line2": "2 66564  43.0004 130.3649 0001661 263.5497  57.1358 15.50614360  4369"}}, "geometry": {"type": "Point", "coordinates": [-98.1760922948412, 34.2152766461802]}}, {"type": "Feature", "properties": {"norad_id": 66565, "name": "STARLINK-35893", "group": "last-30-days", "lat": 33.30370818771643, "lon": -96.14964943210121, "alt_km": 410.6352369907336, "timestamp": "2025-12-11T10:53:14.620299+00:00", "meta": {"OBJECT_NAME": "STARLINK-35893", "OBJECT_ID": "2025-268J", "EPOCH": "2025-12-11T04:00:01.998720", "MEAN_MOTION": 15.50607763, "ECCENTRICITY": 0.0001592, "INCLINATION": 43.0004, "RA_OF_ASC_NODE": 130.3594, "ARG_OF_PERICENTER": 264.5055, "MEAN_ANOMALY": 58.0996, "EPHEMERIS_TYPE": 0, "CLASSIFICATION_TYPE": "U", "NORAD_CAT_ID": 66565, "ELEMENT_SET_NO": 999, "REV_AT_EPOCH": 441, "BSTAR": -0.0016254, "MEAN_MOTION_DOT": -0.0009465, "MEAN_MOTION_DDOT": 0}, "tle": {"line1": "1 66565U 25268J   25345.16668980 -.00094650  00000+0 -16254-2 0  9999", "line2": "2 66565  43.0004 130.3594 0001592 264.5055  58.0996 15.50607763  4416"}}, "geometry": {"type": "Point", "coordinates": [-96.14964943210121, 33.30370818771643]}}, {"type": "Feature", "properties": {"norad_id": 66566, "name": "STARLINK-35871", "group": "last-30-days", "lat": 32.3607134648341, "lon": -94.16731518939075, "alt_km": 410.74636809808453, "timestamp": "2025-12-11T10:53:14.620311+00:00", "meta": {"OBJECT_NAME": "STARLINK-35871", "OBJECT_ID": "2025-268K", "EPOCH": "2025-12-11T04:00:01.998720", "MEAN_MOTION": 15.50597866, "ECCENTRICITY": 0.0001521, "INCLINATION": 43.0004, "RA_OF_ASC_NODE": 130.3545, "ARG_OF_PERICENTER": 265.5058, "MEAN_ANOMALY": 59.0208, "EPHEMERIS_TYPE": 0, "CLASSIFICATION_TYPE": "U", "NORAD_CAT_ID": 66566, "ELEMENT_SET_NO": 999, "REV_AT_EPOCH": 441, "BSTAR": -0.0014065, "MEAN_MOTION_DOT": -0.00082052, "MEAN_MOTION_DDOT": 0}, "tle": {"line1": "1 66566U 25268K   25345.16668980 -.00082052  00000+0 -14065-2 0  9991", "line2": "2 66566  43.0004 130.3545 0001521 265.5058  59.0208 15.50597866  4418"}}, "geometry": {"type": "Point", "coordinates": [-94.16731518939075, 32.3607134648341]}}, {"type": "Feature", "properties": {"norad_id": 66567, "name": "STARLINK-35825", "group": "last-30-days", "lat": 31.388504881167897, "lon": -92.22832064630082, "alt_km": 410.922365833344, "timestamp": "2025-12-11T10:53:14.620321+00:00", "meta": {"OBJECT_NAME": "STARLINK-35825", "OBJECT_ID": "2025-268L", "EPOCH": "2025-12-11T04:00:01.998720", "MEAN_MOTION": 15.50596658, "ECCENTRICITY": 0.0001613, "INCLINATION": 43.0005, "RA_OF_ASC_NODE": 130.3503, "ARG_OF_PERICENTER": 265.5295, "MEAN_ANOMALY": 60.9112, "EPHEMERIS_TYPE": 0, "CLASSIFICATION_TYPE": "U", "NORAD_CAT_ID": 66567, "ELEMENT_SET_NO": 999, "REV_AT_EPOCH": 441, "BSTAR": -0.0013297, "MEAN_MOTION_DOT": -0.00077627, "MEAN_MOTION_DDOT": 0}, "tle": {"line1": "1 66567U 25268L   25345.16668980 -.00077627  00000+0 -13297-2 0  9990", "line2": "2 66567  43.0005 130.3503 0001613 265.5295  60.9112 15.50596658  4412"}}, "geometry": {"type": "Point", "coordinates": [-92.22832064630082, 31.388504881167897]}}, {"type": "Feature", "properties": {"norad_id": 66568, "name": "STARLINK-35803", "group": "last-30-days", "lat": 30.385746307877895, "lon": -90.32812387784753, "alt_km": 410.9830738184246, "timestamp": "2025-12-11T10:53:14.620332+00:00", "meta": {"OBJECT_NAME": "STARLINK-35803", "OBJECT_ID": "2025-268M", "EPOCH": "2025-12-11T04:00:01.998720", "MEAN_MOTION": 15.50596543, "ECCENTRICITY": 0.0001492, "INCLINATION": 43.0004, "RA_OF_ASC_NODE": 130.3446, "ARG_OF_PERICENTER": 264.3726, "MEAN_ANOMALY": 63.9837, "EPHEMERIS_TYPE": 0, "CLASSIFICATION_TYPE": "U", "NORAD_CAT_ID": 66568, "ELEMENT_SET_NO": 999, "REV_AT_EPOCH": 441, "BSTAR": -0.0012976, "MEAN_MOTION_DOT": -0.0007578, "MEAN_MOTION_DDOT": 0}, "tle": {"line1": "1 66568U 25268M   25345.16668980 -.00075780  00000+0 -12976-2 0  9992", "line2": "2 66568  43.0004 130.3446 0001492 264.3726  63.9837 15.50596543  4419"}}, "geometry": {"type": "Point", "coordinates": [-90.32812387784753, 30.385746307877895]}}]}